AII-BRAVO               
1 48270U 21034C   26068.69561509  .00006142  00000+0  46527-3 0  9993
2 48270  97.5758 125.8704 0005372 233.3237 126.7495 15.02621336264679
STARLINK-6111           
1 57102U 23090B   26068.84836316 -.00000109  00000+0  70337-5 0  9995
2 57102  43.0042 274.1027 0001435 273.1088  86.9590 15.02537155150439
