[{"OBJECT_NAME":"AII-BRAVO","OBJECT_ID":"2021-034C","EPOCH":"2026-03-09T16:41:41.144640","MEAN_MOTION":15.02621336,"ECCENTRICITY":0.00053718,"INCLINATION":97.5758,"RA_OF_ASC_NODE":125.8704,"ARG_OF_PERICENTER":233.3237,"MEAN_ANOMALY":126.7495,"EPHEMERIS_TYPE":0,"CLASSIFICATION_TYPE":"U","NORAD_CAT_ID":48270,"ELEMENT_SET_NO":999,"REV_AT_EPOCH":26467,"BSTAR":0.00046526558,"MEAN_MOTION_DOT":6.142e-5,"MEAN_MOTION_DDOT":0},{"OBJECT_NAME":"STARLINK-6111","OBJECT_ID":"2023-090B","EPOCH":"2026-03-09T20:21:38.577888","MEAN_MOTION":15.02537156,"ECCENTRICITY":0.0001435,"INCLINATION":43.0042,"RA_OF_ASC_NODE":274.1027,"ARG_OF_PERICENTER":273.1088,"MEAN_ANOMALY":86.959,"EPHEMERIS_TYPE":0,"CLASSIFICATION_TYPE":"U","NORAD_CAT_ID":57102,"ELEMENT_SET_NO":999,"REV_AT_EPOCH":15043,"BSTAR":7.033728e-6,"MEAN_MOTION_DOT":-1.09e-6,"MEAN_MOTION_DDOT":0}]
